{
  "type": "FeatureCollection",
  "features": [
    {
      "type": "Feature",
      "properties": {
        "norad_id": 66561,
        "name": "STARLINK-35305",
        "group": "last-30-days",
        "lat": 32.81728005430349,
        "lon": -170.55784806664417,
        "alt_km": 405.4672966221542,
        "timestamp": "2025-12-24T07:45:04.930042+00:00",
        "meta_object_name": "STARLINK-35305",
        "meta_object_id": "2025-268E",
        "meta_epoch": "2025-12-24T00:00:00.999648",
        "meta_mean_motion": 15.53849434,
        "meta_eccentricity": 0.00012114,
        "meta_inclination": 43.0005,
        "meta_ra_of_asc_node": 55.1303,
        "meta_arg_of_pericenter": 277.2412,
        "meta_mean_anomaly": 202.1594,
        "meta_ephemeris_type": 0,
        "meta_classification_type": "U",
        "meta_norad_cat_id": 66561,
        "meta_element_set_no": 999,
        "meta_rev_at_epoch": 610,
        "meta_bstar": -0.035643767,
        "meta_mean_motion_dot": -0.02092424,
        "meta_mean_motion_ddot": 0,
        "tle_line1": "1 66561U 25268E   25358.00001157 -.02092424  00000+0 -35644-1 0  9991",
        "tle_line2": "2 66561  43.0005  55.1303 0001211 277.2412 202.1594 15.53849434  6101"
      },
      "geometry": {
        "type": "Point",
        "coordinates": [
          -170.55784806664417,
          32.81728005430349
        ]
      }
    },
    {
      "type": "Feature",
      "properties": {
        "norad_id": 66562,
        "name": "STARLINK-35579",
        "group": "last-30-days",
        "lat": 35.12582064621155,
        "lon": -175.77138496122134,
        "alt_km": 407.6975633606089,
        "timestamp": "2025-12-24T07:45:04.930052+00:00",
        "meta_object_name": "STARLINK-35579",
        "meta_object_id": "2025-268F",
        "meta_epoch": "2025-12-24T00:00:00.999648",
        "meta_mean_motion": 15.52999186,
        "meta_eccentricity": 0.00014129,
        "meta_inclination": 43.0008,
        "meta_ra_of_asc_node": 55.1408,
        "meta_arg_of_pericenter": 279.4062,
        "meta_mean_anomaly": 196.0684,
        "meta_ephemeris_type": 0,
        "meta_classification_type": "U",
        "meta_norad_cat_id": 66562,
        "meta_element_set_no": 999,
        "meta_rev_at_epoch": 610,
        "meta_bstar": -0.036231316,
        "meta_mean_motion_dot": -0.02065019,
        "meta_mean_motion_ddot": 0,
        "tle_line1": "1 66562U 25268F   25358.00001157 -.02065019  00000+0 -36231-1 0  9995",
        "tle_line2": "2 66562  43.0008  55.1408 0001412 279.4062 196.0684 15.52999186  6109"
      },
      "geometry": {
        "type": "Point",
        "coordinates": [
          -175.77138496122134,
          35.12582064621155
        ]
      }
    },
    {
      "type": "Feature",
      "properties": {
        "norad_id": 66563,
        "name": "STARLINK-35437",
        "group": "last-30-days",
        "lat": 30.60239631031907,
        "lon": -166.17497364819988,
        "alt_km": 403.28802001150234,
        "timestamp": "2025-12-24T07:45:04.930063+00:00",
        "meta_object_name": "STARLINK-35437",
        "meta_object_id": "2025-268G",
        "meta_epoch": "2025-12-24T00:00:00.999648",
        "meta_mean_motion": 15.54688424,
        "meta_eccentricity": 0.00012218,
        "meta_inclination": 43.0004,
        "meta_ra_of_asc_node": 55.1221,
        "meta_arg_of_pericenter": 272.3166,
        "meta_mean_anomaly": 210.4469,
        "meta_ephemeris_type": 0,
        "meta_classification_type": "U",
        "meta_norad_cat_id": 66563,
        "meta_element_set_no": 999,
        "meta_rev_at_epoch": 610,
        "meta_bstar": -0.034552334,
        "meta_mean_motion_dot": -0.02092278,
        "meta_mean_motion_ddot": 0,
        "tle_line1": "1 66563U 25268G   25358.00001157 -.02092278  00000+0 -34552-1 0  9997",
        "tle_line2": "2 66563  43.0004  55.1221 0001221 272.3166 210.4469 15.54688424  6108"
      },
      "geometry": {
        "type": "Point",
        "coordinates": [
          -166.17497364819988,
          30.60239631031907
        ]
      }
    },
    {
      "type": "Feature",
      "properties": {
        "norad_id": 66564,
        "name": "STARLINK-35358",
        "group": "last-30-days",
        "lat": 28.556743038512707,
        "lon": -162.52138385009755,
        "alt_km": 401.2262003726473,
        "timestamp": "2025-12-24T07:45:04.930077+00:00",
        "meta_object_name": "STARLINK-35358",
        "meta_object_id": "2025-268H",
        "meta_epoch": "2025-12-24T00:00:00.999648",
        "meta_mean_motion": 15.55536736,
        "meta_eccentricity": 0.00012829,
        "meta_inclination": 43.0003,
        "meta_ra_of_asc_node": 55.1151,
        "meta_arg_of_pericenter": 276.52,
        "meta_mean_anomaly": 209.0424,
        "meta_ephemeris_type": 0,
        "meta_classification_type": "U",
        "meta_norad_cat_id": 66564,
        "meta_element_set_no": 999,
        "meta_rev_at_epoch": 610,
        "meta_bstar": -0.033743617,
        "meta_mean_motion_dot": -0.02107039,
        "meta_mean_motion_ddot": 0,
        "tle_line1": "1 66564U 25268H   25358.00001157 -.02107039  00000+0 -33744-1 0  9992",
        "tle_line2": "2 66564  43.0003  55.1151 0001282 276.5200 209.0424 15.55536736  6106"
      },
      "geometry": {
        "type": "Point",
        "coordinates": [
          -162.52138385009755,
          28.556743038512707
        ]
      }
    },
    {
      "type": "Feature",
      "properties": {
        "norad_id": 66565,
        "name": "STARLINK-35893",
        "group": "last-30-days",
        "lat": 26.742902618431042,
        "lon": -159.52809592422685,
        "alt_km": 398.83033664617415,
        "timestamp": "2025-12-24T07:45:04.930088+00:00",
        "meta_object_name": "STARLINK-35893",
        "meta_object_id": "2025-268J",
        "meta_epoch": "2025-12-24T00:00:00.999648",
        "meta_mean_motion": 15.56366693,
        "meta_eccentricity": 0.00011801,
        "meta_inclination": 43.0006,
        "meta_ra_of_asc_node": 55.109,
        "meta_arg_of_pericenter": 265.6681,
        "meta_mean_anomaly": 222.1386,
        "meta_ephemeris_type": 0,
        "meta_classification_type": "U",
        "meta_norad_cat_id": 66565,
        "meta_element_set_no": 999,
        "meta_rev_at_epoch": 610,
        "meta_bstar": -0.032507472,
        "meta_mean_motion_dot": -0.02095315,
        "meta_mean_motion_ddot": 0,
        "tle_line1": "1 66565U 25268J   25358.00001157 -.02095315  00000+0 -32507-1 0  9992",
        "tle_line2": "2 66565  43.0006  55.1090 0001180 265.6681 222.1386 15.56366693  6108"
      },
      "geometry": {
        "type": "Point",
        "coordinates": [
          -159.52809592422685,
          26.742902618431042
        ]
      }
    },
    {
      "type": "Feature",
      "properties": {
        "norad_id": 66566,
        "name": "STARLINK-35871",
        "group": "last-30-days",
        "lat": 25.323532662682872,
        "lon": -157.31806208732564,
        "alt_km": 397.58429273642014,
        "timestamp": "2025-12-24T07:45:04.930099+00:00",
        "meta_object_name": "STARLINK-35871",
        "meta_object_id": "2025-268K",
        "meta_epoch": "2025-12-24T00:00:00.999648",
        "meta_mean_motion": 15.56787862,
        "meta_eccentricity": 0.00013692,
        "meta_inclination": 43.0007,
        "meta_ra_of_asc_node": 55.1044,
        "meta_arg_of_pericenter": 268.4288,
        "meta_mean_anomaly": 221.2622,
        "meta_ephemeris_type": 0,
        "meta_classification_type": "U",
        "meta_norad_cat_id": 66566,
        "meta_element_set_no": 999,
        "meta_rev_at_epoch": 610,
        "meta_bstar": -0.029428242,
        "meta_mean_motion_dot": -0.01909981,
        "meta_mean_motion_ddot": 0,
        "tle_line1": "1 66566U 25268K   25358.00001157 -.01909981  00000+0 -29428-1 0  9993",
        "tle_line2": "2 66566  43.0007  55.1044 0001369 268.4288 221.2622 15.56787862  6100"
      },
      "geometry": {
        "type": "Point",
        "coordinates": [
          -157.31806208732564,
          25.323532662682872
        ]
      }
    },
    {
      "type": "Feature",
      "properties": {
        "norad_id": 66567,
        "name": "STARLINK-35825",
        "group": "last-30-days",
        "lat": 23.997316146878834,
        "lon": -155.34315602829992,
        "alt_km": 395.9266381562611,
        "timestamp": "2025-12-24T07:45:04.930117+00:00",
        "meta_object_name": "STARLINK-35825",
        "meta_object_id": "2025-268L",
        "meta_epoch": "2025-12-24T00:00:00.999648",
        "meta_mean_motion": 15.5679621,
        "meta_eccentricity": 8.528e-05,
        "meta_inclination": 43.0004,
        "meta_ra_of_asc_node": 55.0999,
        "meta_arg_of_pericenter": 273.9574,
        "meta_mean_anomaly": 217.6216,
        "meta_ephemeris_type": 0,
        "meta_classification_type": "U",
        "meta_norad_cat_id": 66567,
        "meta_element_set_no": 999,
        "meta_rev_at_epoch": 610,
        "meta_bstar": -0.017200681,
        "meta_mean_motion_dot": -0.01142155,
        "meta_mean_motion_ddot": 0,
        "tle_line1": "1 66567U 25268L   25358.00001157 -.01142155  00000+0 -17201-1 0  9992",
        "tle_line2": "2 66567  43.0004  55.0999 0000852 273.9574 217.6216 15.56796210  6106"
      },
      "geometry": {
        "type": "Point",
        "coordinates": [
          -155.34315602829992,
          23.997316146878834
        ]
      }
    }
  ]
}